[{"OBJECT_NAME":"STARLINK-36349","OBJECT_ID":"2026-038D","EPOCH":"2026-03-05T04:00:01.999584","MEAN_MOTION":16.01867182,"ECCENTRICITY":9.23e-5,"INCLINATION":97.276,"RA_OF_ASC_NODE":74.0844,"ARG_OF_PERICENTER":87.6763,"MEAN_ANOMALY":279.0601,"EPHEMERIS_TYPE":0,"CLASSIFICATION_TYPE":"U","NORAD_CAT_ID":67964,"ELEMENT_SET_NO":999,"REV_AT_EPOCH":247,"BSTAR":-0.0027778,"MEAN_MOTION_DOT":-0.01554162,"MEAN_MOTION_DDOT":0.00075766},{"OBJECT_NAME":"STARLINK-36806","OBJECT_ID":"2026-038E","EPOCH":"2026-03-05T04:00:01.999584","MEAN_MOTION":16.02112164,"ECCENTRICITY":0.0001014,"INCLINATION":97.2757,"RA_OF_ASC_NODE":74.0868,"ARG_OF_PERICENTER":58.1412,"MEAN_ANOMALY":313.4164,"EPHEMERIS_TYPE":0,"CLASSIFICATION_TYPE":"U","NORAD_CAT_ID":67965,"ELEMENT_SET_NO":999,"REV_AT_EPOCH":247,"BSTAR":-0.0027178,"MEAN_MOTION_DOT":-0.01542528,"MEAN_MOTION_DDOT":0.00074927},{"OBJECT_NAME":"STARLINK-36820","OBJECT_ID":"2026-038F","EPOCH":"2026-03-05T04:00:01.999584","MEAN_MOTION":16.02211521,"ECCENTRICITY":9.15e-5,"INCLINATION":97.2757,"RA_OF_ASC_NODE":74.0878,"ARG_OF_PERICENTER":84.6255,"MEAN_ANOMALY":289.1112,"EPHEMERIS_TYPE":0,"CLASSIFICATION_TYPE":"U","NORAD_CAT_ID":67966,"ELEMENT_SET_NO":999,"REV_AT_EPOCH":247,"BSTAR":-0.0026583,"MEAN_MOTION_DOT":-0.01517735,"MEAN_MOTION_DDOT":0.00072786},{"OBJECT_NAME":"STARLINK-36819","OBJECT_ID":"2026-038G","EPOCH":"2026-03-05T04:00:01.999584","MEAN_MOTION":16.02336197,"ECCENTRICITY":0.0001089,"INCLINATION":97.2757,"RA_OF_ASC_NODE":74.0888,"ARG_OF_PERICENTER":64.8211,"MEAN_ANOMALY":311.2636,"EPHEMERIS_TYPE":0,"CLASSIFICATION_TYPE":"U","NORAD_CAT_ID":67967,"ELEMENT_SET_NO":999,"REV_AT_EPOCH":247,"BSTAR":-0.0026791,"MEAN_MOTION_DOT":-0.01540528,"MEAN_MOTION_DDOT":0.00074942},{"OBJECT_NAME":"STARLINK-36812","OBJECT_ID":"2026-038H","EPOCH":"2026-03-05T04:00:01.999584","MEAN_MOTION":16.02451438,"ECCENTRICITY":0.0001129,"INCLINATION":97.2753,"RA_OF_ASC_NODE":74.0893,"ARG_OF_PERICENTER":58.4651,"MEAN_ANOMALY":319.6249,"EPHEMERIS_TYPE":0,"CLASSIFICATION_TYPE":"U","NORAD_CAT_ID":67968,"ELEMENT_SET_NO":999,"REV_AT_EPOCH":247,"BSTAR":-0.0026824,"MEAN_MOTION_DOT":-0.01552653,"MEAN_MOTION_DDOT":0.00076148},{"OBJECT_NAME":"STARLINK-36709","OBJECT_ID":"2026-038J","EPOCH":"2026-03-05T04:00:01.999584","MEAN_MOTION":16.02687917,"ECCENTRICITY":8.77e-5,"INCLINATION":97.2753,"RA_OF_ASC_NODE":74.0915,"ARG_OF_PERICENTER":79.2812,"MEAN_ANOMALY":303.5841,"EPHEMERIS_TYPE":0,"CLASSIFICATION_TYPE":"U","NORAD_CAT_ID":67969,"ELEMENT_SET_NO":999,"REV_AT_EPOCH":247,"BSTAR":-0.0026013,"MEAN_MOTION_DOT":-0.01526883,"MEAN_MOTION_DDOT":0.00074016},{"OBJECT_NAME":"STARLINK-36319","OBJECT_ID":"2026-038K","EPOCH":"2026-03-05T04:00:01.999584","MEAN_MOTION":16.02562977,"ECCENTRICITY":0.0001046,"INCLINATION":97.2753,"RA_OF_ASC_NODE":74.0903,"ARG_OF_PERICENTER":58.88,"MEAN_ANOMALY":321.5778,"EPHEMERIS_TYPE":0,"CLASSIFICATION_TYPE":"U","NORAD_CAT_ID":67970,"ELEMENT_SET_NO":999,"REV_AT_EPOCH":244,"BSTAR":-0.002615,"MEAN_MOTION_DOT":-0.01523826,"MEAN_MOTION_DDOT":0.00073633},{"OBJECT_NAME":"STARLINK-36710","OBJECT_ID":"2026-038L","EPOCH":"2026-03-05T04:00:01.999584","MEAN_MOTION":16.02842112,"ECCENTRICITY":9.11e-5,"INCLINATION":97.275,"RA_OF_ASC_NODE":74.0928,"ARG_OF_PERICENTER":70.7015,"MEAN_ANOMALY":315.0601,"EPHEMERIS_TYPE":0,"CLASSIFICATION_TYPE":"U","NORAD_CAT_ID":67971,"ELEMENT_SET_NO":999,"REV_AT_EPOCH":247,"BSTAR":-0.0025614,"MEAN_MOTION_DOT":-0.01517256,"MEAN_MOTION_DDOT":0.00073283},{"OBJECT_NAME":"STARLINK-36894","OBJECT_ID":"2026-038M","EPOCH":"2026-03-05T04:00:01.999584","MEAN_MOTION":16.02959694,"ECCENTRICITY":0.0001079,"INCLINATION":97.2747,"RA_OF_ASC_NODE":74.0937,"ARG_OF_PERICENTER":51.4842,"MEAN_ANOMALY":336.6838,"EPHEMERIS_TYPE":0,"CLASSIFICATION_TYPE":"U","NORAD_CAT_ID":67972,"ELEMENT_SET_NO":999,"REV_AT_EPOCH":247,"BSTAR":-0.0025218,"MEAN_MOTION_DOT":-0.01504277,"MEAN_MOTION_DDOT":0.00072221},{"OBJECT_NAME":"STARLINK-36900","OBJECT_ID":"2026-038N","EPOCH":"2026-03-05T04:00:01.999584","MEAN_MOTION":16.03203416,"ECCENTRICITY":8.78e-5,"INCLINATION":97.2746,"RA_OF_ASC_NODE":74.0957,"ARG_OF_PERICENTER":76.0023,"MEAN_ANOMALY":316.9714,"EPHEMERIS_TYPE":0,"CLASSIFICATION_TYPE":"U","NORAD_CAT_ID":67973,"ELEMENT_SET_NO":999,"REV_AT_EPOCH":247,"BSTAR":-0.0024885,"MEAN_MOTION_DOT":-0.01505761,"MEAN_MOTION_DDOT":0.00072562},{"OBJECT_NAME":"STARLINK-36901","OBJECT_ID":"2026-038P","EPOCH":"2026-03-05T04:00:01.999584","MEAN_MOTION":16.03092194,"ECCENTRICITY":0.0001075,"INCLINATION":97.2747,"RA_OF_ASC_NODE":74.0945,"ARG_OF_PERICENTER":52.3505,"MEAN_ANOMALY":338.0899,"EPHEMERIS_TYPE":0,"CLASSIFICATION_TYPE":"U","NORAD_CAT_ID":67974,"ELEMENT_SET_NO":999,"REV_AT_EPOCH":247,"BSTAR":-0.0025392,"MEAN_MOTION_DOT":-0.01526252,"MEAN_MOTION_DDOT":0.00074313},{"OBJECT_NAME":"STARLINK-36883","OBJECT_ID":"2026-038Q","EPOCH":"2026-03-05T04:00:01.999584","MEAN_MOTION":16.03715844,"ECCENTRICITY":0.0001103,"INCLINATION":97.274,"RA_OF_ASC_NODE":74.0999,"ARG_OF_PERICENTER":55.3492,"MEAN_ANOMALY":347.3135,"EPHEMERIS_TYPE":0,"CLASSIFICATION_TYPE":"U","NORAD_CAT_ID":67975,"ELEMENT_SET_NO":999,"REV_AT_EPOCH":247,"BSTAR":-0.0023935,"MEAN_MOTION_DOT":-0.01492995,"MEAN_MOTION_DDOT":0.00071859},{"OBJECT_NAME":"STARLINK-36880","OBJECT_ID":"2026-038R","EPOCH":"2026-03-05T04:00:01.999584","MEAN_MOTION":16.03354903,"ECCENTRICITY":0.0001078,"INCLINATION":97.2744,"RA_OF_ASC_NODE":74.0967,"ARG_OF_PERICENTER":60.4231,"MEAN_ANOMALY":334.9633,"EPHEMERIS_TYPE":0,"CLASSIFICATION_TYPE":"U","NORAD_CAT_ID":67976,"ELEMENT_SET_NO":999,"REV_AT_EPOCH":247,"BSTAR":-0.0024853,"MEAN_MOTION_DOT":-0.0151725,"MEAN_MOTION_DDOT":0.00073729},{"OBJECT_NAME":"STARLINK-36904","OBJECT_ID":"2026-038S","EPOCH":"2026-03-05T04:00:01.999584","MEAN_MOTION":16.03610763,"ECCENTRICITY":0.0001187,"INCLINATION":97.274,"RA_OF_ASC_NODE":74.0984,"ARG_OF_PERICENTER":56.696,"MEAN_ANOMALY":343.5119,"EPHEMERIS_TYPE":0,"CLASSIFICATION_TYPE":"U","NORAD_CAT_ID":67977,"ELEMENT_SET_NO":999,"REV_AT_EPOCH":247,"BSTAR":-0.0024407,"MEAN_MOTION_DOT":-0.0151276,"MEAN_MOTION_DDOT":0.00073547},{"OBJECT_NAME":"STARLINK-36364","OBJECT_ID":"2026-038T","EPOCH":"2026-03-05T04:00:01.999584","MEAN_MOTION":16.04015039,"ECCENTRICITY":8.82e-5,"INCLINATION":97.2735,"RA_OF_ASC_NODE":74.1021,"ARG_OF_PERICENTER":85.2882,"MEAN_ANOMALY":323.0591,"EPHEMERIS_TYPE":0,"CLASSIFICATION_TYPE":"U","NORAD_CAT_ID":67978,"ELEMENT_SET_NO":999,"REV_AT_EPOCH":247,"BSTAR":-0.0023558,"MEAN_MOTION_DOT":-0.01495788,"MEAN_MOTION_DDOT":0.00072367},{"OBJECT_NAME":"STARLINK-36359","OBJECT_ID":"2026-038U","EPOCH":"2026-03-05T04:00:01.999584","MEAN_MOTION":16.03459098,"ECCENTRICITY":8.72e-5,"INCLINATION":97.2742,"RA_OF_ASC_NODE":74.097,"ARG_OF_PERICENTER":75.3117,"MEAN_ANOMALY":322.131,"EPHEMERIS_TYPE":0,"CLASSIFICATION_TYPE":"U","NORAD_CAT_ID":67979,"ELEMENT_SET_NO":999,"REV_AT_EPOCH":247,"BSTAR":-0.002466,"MEAN_MOTION_DOT":-0.01514716,"MEAN_MOTION_DDOT":0.00073591}]
