STARLINK-36349          
1 67964U 26038D   26064.16668981 -.01554162  75766-3 -27778-2 0  9997
2 67964  97.2760  74.0844 0000923  87.6763 279.0601 16.01867182  2471
STARLINK-36806          
1 67965U 26038E   26064.16668981 -.01542528  74927-3 -27178-2 0  9993
2 67965  97.2757  74.0868 0001014  58.1412 313.4164 16.02112164  2471
STARLINK-36820          
1 67966U 26038F   26064.16668981 -.01517735  72786-3 -26583-2 0  9996
2 67966  97.2757  74.0878 0000915  84.6255 289.1112 16.02211521  2470
STARLINK-36819          
1 67967U 26038G   26064.16668981 -.01540528  74942-3 -26791-2 0  9990
2 67967  97.2757  74.0888 0001089  64.8211 311.2636 16.02336197  2472
STARLINK-36812          
1 67968U 26038H   26064.16668981 -.01552653  76148-3 -26824-2 0  9990
2 67968  97.2753  74.0893 0001129  58.4651 319.6249 16.02451438  2475
STARLINK-36709          
1 67969U 26038J   26064.16668981 -.01526883  74016-3 -26013-2 0  9999
2 67969  97.2753  74.0915 0000877  79.2812 303.5841 16.02687917  2473
STARLINK-36319          
1 67970U 26038K   26064.16668981 -.01523826  73633-3 -26150-2 0  9991
2 67970  97.2753  74.0903 0001046  58.8800 321.5778 16.02562977  2445
STARLINK-36710          
1 67971U 26038L   26064.16668981 -.01517256  73283-3 -25614-2 0  9997
2 67971  97.2750  74.0928 0000911  70.7015 315.0601 16.02842112  2479
STARLINK-36894          
1 67972U 26038M   26064.16668981 -.01504277  72221-3 -25218-2 0  9998
2 67972  97.2747  74.0937 0001079  51.4842 336.6838 16.02959694  2471
STARLINK-36900          
1 67973U 26038N   26064.16668981 -.01505761  72562-3 -24885-2 0  9995
2 67973  97.2746  74.0957 0000878  76.0023 316.9714 16.03203416  2472
STARLINK-36901          
1 67974U 26038P   26064.16668981 -.01526252  74313-3 -25392-2 0  9994
2 67974  97.2747  74.0945 0001075  52.3505 338.0899 16.03092194  2471
STARLINK-36883          
1 67975U 26038Q   26064.16668981 -.01492995  71859-3 -23935-2 0  9994
2 67975  97.2740  74.0999 0001103  55.3492 347.3135 16.03715844  2474
STARLINK-36880          
1 67976U 26038R   26064.16668981 -.01517250  73729-3 -24853-2 0  9995
2 67976  97.2744  74.0967 0001078  60.4231 334.9633 16.03354903  2473
STARLINK-36904          
1 67977U 26038S   26064.16668981 -.01512760  73547-3 -24407-2 0  9990
2 67977  97.2740  74.0984 0001187  56.6960 343.5119 16.03610763  2470
STARLINK-36364          
1 67978U 26038T   26064.16668981 -.01495788  72367-3 -23558-2 0  9996
2 67978  97.2735  74.1021 0000882  85.2882 323.0591 16.04015039  2473
STARLINK-36359          
1 67979U 26038U   26064.16668981 -.01514716  73591-3 -24660-2 0  9995
2 67979  97.2742  74.0970 0000872  75.3117 322.1310 16.03459098  2479
